HST                     
1 20580U 90037B   26169.12115247  .00005032  00000+0  15694-3 0  9998
2 20580  28.4721  74.1921 0001766 152.2420 207.8270 15.30755230788719
POLAR                   
1 23802U 96013A   26168.80723713  .00000114  00000+0  00000+0 0  9992
2 23802  79.8548 227.0450 6471047 209.0570  89.8865  1.29846132144863
SWAS                    
1 25560U 98071A   26169.40716125  .00002234  00000+0  14501-3 0  9997
2 25560  69.8945 224.3732 0008659 258.7896 101.2295 15.09631456497456
CXO                     
1 25867U 99040B   26172.02247085  .00000453  00000+0  00000+0 0  9996
2 25867  56.2474 116.4966 7828329 310.2765   0.2930  0.37807394 17333
XMM-NEWTON              
1 25989U 99066A   26169.34668136 -.00000002  00000+0  00000+0 0  9995
2 25989  64.4794 282.9700 4673195  64.9038   0.0897  0.50127427 23010
TERRA                   
1 25994U 99068A   26169.66829625  .00000307  00000+0  71469-4 0  9999
2 25994  97.9456 219.1559 0001701 184.4026 274.5552 14.61104199409826
CLUSTER II-FM7 (SAMBA)  
1 26410U 00041A   26170.36958808  .00004714  00000+0  00000+0 0  9995
2 26410 149.9200  51.3283 9058303 268.5109 359.4853  0.44833363 20329
CLUSTER II-FM8 (TANGO)  
1 26464U 00045B   26166.18760269  .00011725  00000+0  00000+0 0  9995
2 26464 150.1504  51.7507 9057004 268.7261   2.8044  0.44418308 20307
ODIN                    
1 26702U 01007A   26169.68178970  .00153947  00000+0  96741-3 0  9993
2 26702  97.3818 210.7208 0006625 142.4379 217.7350 15.76258882389630
TIMED                   
1 26998U 01055B   26169.61389057  .00000795  00000+0  75717-4 0  9999
2 26998  74.0673 232.1459 0001200 333.0853  27.0269 14.95297033331036
CORIOLIS                
1 27640U 03001A   26169.60648225  .00000070  00000+0  53491-4 0  9992
2 27640  98.7124 176.4696 0013480 204.4385 155.6153 14.19945150214421
SORCE                   
1 27651U 03004A   26169.53424539  .00002036  00000+0  15645-3 0  9991
2 27651  39.9902 253.9929 0016309  59.4414 300.7987 15.03718811272101
MOST                    
1 27843U 03031D   26169.47842683  .00000037  00000+0  36945-4 0  9997
2 27843  98.7044 177.1864 0008762 246.2761 113.7498 14.21322686190898
SCISAT 1                
1 27858U 03036A   26169.30611021  .00000390  00000+0  54451-4 0  9994
2 27858  73.9283 169.1196 0008516 238.9735 121.0606 14.81448472231616
SWIFT                   
1 28485U 04047A   26169.33187220  .00042658  00000+0  35233-3 0  9995
2 28485  20.5514 176.0679 0001495 306.1667  53.8640 15.68419656187047
HINODE (SOLAR-B)        
1 29479U 06041A   26169.61613955  .00000519  00000+0  97675-4 0  9994
2 29479  98.0545 185.7475 0015977 284.7920  75.1515 14.68624755 55082
SHIJIAN-6 02A (SJ-6 02A)
1 29505U 06046A   26169.74067944  .00004077  00000+0  21010-3 0  9996
2 29505  97.6348 210.8193 0004446 120.9832 239.1838 15.16954708 72501
SHIJIAN-6 02B (SJ-6 02B)
1 29506U 06046B   26169.67927416  .00001132  00000+0  92377-4 0  9992
2 29506  97.7152 198.7291 0015412  56.1607 304.1082 15.01380678 70969
FGRST (GLAST)           
1 33053U 08029A   26169.47267448  .00002166  00000+0  73521-4 0  9995
2 33053  25.5804 195.5562 0007897 344.7897  15.2403 15.23950537996038
SDO                     
1 36395U 10005A   26168.41002763 -.00000096  00000+0  00000+0 0  9992
2 36395  34.6527  86.3378 0001734  44.0102 180.8312  1.00269958 60061
CRYOSAT 2               
1 36508U 10013A   26169.66667231  .00000192  00000+0  47060-4 0  9990
2 36508  92.0357 277.6611 0002141  90.2992 269.8461 14.51899670858297
X-SAT                   
1 37389U 11015C   26169.69983741  .00000128  00000+0  71797-4 0  9994
2 37389  98.3512 146.6514 0013816 344.1706  15.9041 14.25206636787895
GCOM-W1 (SHIZUKU)       
1 38337U 12025A   26169.28724637  .00000362  00000+0  90261-4 0  9999
2 38337  98.2021 109.8262 0001777  74.4678  83.2661 14.57125513749194
NUSTAR                  
1 38358U 12031A   26169.75002315  .00003963  00000+0  19174-3 0  9996
2 38358   6.0271  22.4137 0007190 135.9346 184.5993 15.08812678  1301
NEOSSAT                 
1 39089U 13009D   26169.46387226  .00000107  00000+0  51766-4 0  9990
2 39089  98.4177 349.4661 0009938 239.4885 120.5321 14.35826826696929
BRITE-AUSTRIA           
1 39091U 13009F   26169.32256041  .00000128  00000+0  58246-4 0  9991
2 39091  98.3995 348.7300 0009190 232.6910 127.3439 14.36542508697216
IRIS                    
1 39197U 13033A   26169.51170041  .00000763  00000+0  93582-4 0  9998
2 39197  97.9328   8.7846 0023454 317.3281  42.6112 14.85887377700578
HISAKI (SPRINT-A)       
1 39253U 13049A   26169.45455014  .00000106  00000+0  58667-4 0  9993
2 39253  29.7180 213.5695 0136853  27.1270 333.6375 13.55544850631591
CASSIOPE                
1 39265U 13055A   26169.67089595  .00042638 -52736-6  46432-3 0  9997
2 39265  80.9137  64.9200 0292321  57.4682 305.4430 15.25314777667894
STSAT-3                 
1 39422U 13066G   26169.71084230  .00001780  00000+0  13746-3 0  9994
2 39422  97.6228 139.5746 0011131  41.0851 319.1210 15.02762348684437
SWARM B                 
1 39451U 13067A   26169.63958388  .00002745  00000+0  97577-4 0  9999
2 39451  87.7441 341.8749 0003260  85.2755 274.8866 15.28558838683465
